[{"OBJECT_NAME":"ONEWEB-0436","OBJECT_ID":"2022-012M","EPOCH":"2026-03-09T21:18:18.188064","MEAN_MOTION":13.17647825,"ECCENTRICITY":0.00017784,"INCLINATION":87.916,"RA_OF_ASC_NODE":25.5566,"ARG_OF_PERICENTER":89.6815,"MEAN_ANOMALY":270.452,"EPHEMERIS_TYPE":0,"CLASSIFICATION_TYPE":"U","NORAD_CAT_ID":51633,"ELEMENT_SET_NO":999,"REV_AT_EPOCH":20060,"BSTAR":0.00053249449,"MEAN_MOTION_DOT":2.2e-6,"MEAN_MOTION_DDOT":0},{"OBJECT_NAME":"SL-14 DEB","OBJECT_ID":"1991-056AV","EPOCH":"2026-03-09T13:43:49.650816","MEAN_MOTION":13.05278101,"ECCENTRICITY":0.0183518,"INCLINATION":82.5867,"RA_OF_ASC_NODE":273.1914,"ARG_OF_PERICENTER":27.3818,"MEAN_ANOMALY":333.6825,"EPHEMERIS_TYPE":0,"CLASSIFICATION_TYPE":"U","NORAD_CAT_ID":45307,"ELEMENT_SET_NO":999,"REV_AT_EPOCH":28548,"BSTAR":0.014449,"MEAN_MOTION_DOT":5.096e-5,"MEAN_MOTION_DDOT":0}]
